STARLINK-4620           
1 53674U 22105AC  25265.24035138  .00000772  00000+0  64621-4 0  9999
2 53674  97.6000 145.2958 0002131 132.8047 227.3357 15.01264266167966
STARLINK-4617           
1 53675U 22105AD  25265.23481267  .00000522  00000+0  45199-4 0  9999
2 53675  97.6017 145.3006 0002247 114.6920 245.4539 15.01257643167960
STARLINK-4621           
1 53676U 22105AE  25265.23664481  .00001111  00000+0  91036-4 0  9997
2 53676  97.6006 145.2924 0001579 186.6804 173.4400 15.01265387167965
STARLINK-4579           
1 53677U 22105AF  25265.24220125  .00000905  00000+0  74963-4 0  9992
2 53677  97.6000 145.2979 0001801 136.7646 223.3720 15.01264877167961
STARLINK-4632           
1 53679U 22105AH  25265.23849844  .00000321  00000+0  29488-4 0  9992
2 53679  97.6004 145.2943 0001223 112.9949 247.1405 15.01262753167963
STARLINK-4630           
1 53680U 22105AJ  25265.23109467  .00000830  00000+0  69106-4 0  9990
2 53680  97.6031 145.2893 0001648  84.1005 276.0407 15.01263401167967
STARLINK-4424           
1 53681U 22105AK  25265.22925358 -.00003982  00000+0 -30561-3 0  9990
2 53681  97.6037 145.3013 0001565  98.9254 261.2147 15.01268816167968
STARLINK-4438           
1 53682U 22105AL  25265.22000354 -.00001781  00000+0 -13422-3 0  9993
2 53682  97.6048 145.2985 0002589  87.2101 272.9420 15.01244511167966
STARLINK-4625           
1 53683U 22105AM  25265.23504142  .00000602  00000+0  51404-4 0  9991
2 53683  97.6009 145.2849 0001442 110.8875 249.2504 15.01263521167963
STARLINK-4624           
1 53684U 22105AN  25265.25146793  .00001720  00000+0  13841-3 0  9992
2 53684  97.6009 145.3741 0000972  89.7986 270.3350 15.01259344167940
STARLINK-4626           
1 53685U 22105AP  25265.22764033  .00001875  00000+0  15056-3 0  9994
2 53685  97.6042 145.2909 0001671  83.9113 276.2302 15.01246300167960
STARLINK-4467           
1 53686U 22105AQ  25265.26626827  .00001614  00000+0  13012-3 0  9998
2 53686  97.6014 145.3890 0002781  38.7150 321.4273 15.01275237167974
STARLINK-4569           
1 53687U 22105AR  25265.22739223  .00000622  00000+0  52962-4 0  9996
2 53687  97.6041 145.2861 0002114  84.4063 275.7402 15.01264753167968
STARLINK-4571           
1 53688U 22105AS  25265.22184083  .00000494  00000+0  42978-4 0  9998
2 53688  97.6040 145.2821 0002263  85.7010 274.4473 15.01262156167964
STARLINK-4570           
1 53690U 22105AU  25265.24405510  .00000323  00000+0  29642-4 0  9998
2 53690  97.6001 145.2446 0000531 181.1728 178.9495 15.01263127167961
STARLINK-4560           
1 53691U 22105AV  25265.22369114  .00000878  00000+0  72856-4 0  9996
2 53691  97.6036 145.2760 0002073  86.5250 273.6211 15.01263851167963
