[{"OBJECT_NAME":"STARLINK-4620","OBJECT_ID":"2022-105AC","EPOCH":"2025-09-22T05:46:06.359232","MEAN_MOTION":15.01264266,"ECCENTRICITY":0.00021319,"INCLINATION":97.6,"RA_OF_ASC_NODE":145.2958,"ARG_OF_PERICENTER":132.8047,"MEAN_ANOMALY":227.3357,"EPHEMERIS_TYPE":0,"CLASSIFICATION_TYPE":"U","NORAD_CAT_ID":53674,"ELEMENT_SET_NO":999,"REV_AT_EPOCH":16796,"BSTAR":6.4621036e-5,"MEAN_MOTION_DOT":7.72e-6,"MEAN_MOTION_DDOT":0},{"OBJECT_NAME":"STARLINK-4617","OBJECT_ID":"2022-105AD","EPOCH":"2025-09-22T05:38:07.814688","MEAN_MOTION":15.01257643,"ECCENTRICITY":0.0002247,"INCLINATION":97.6017,"RA_OF_ASC_NODE":145.3006,"ARG_OF_PERICENTER":114.692,"MEAN_ANOMALY":245.4539,"EPHEMERIS_TYPE":0,"CLASSIFICATION_TYPE":"U","NORAD_CAT_ID":53675,"ELEMENT_SET_NO":999,"REV_AT_EPOCH":16796,"BSTAR":4.5198858e-5,"MEAN_MOTION_DOT":5.22e-6,"MEAN_MOTION_DDOT":0},{"OBJECT_NAME":"STARLINK-4621","OBJECT_ID":"2022-105AE","EPOCH":"2025-09-22T05:40:46.111584","MEAN_MOTION":15.01265387,"ECCENTRICITY":0.00015791,"INCLINATION":97.6006,"RA_OF_ASC_NODE":145.2924,"ARG_OF_PERICENTER":186.6804,"MEAN_ANOMALY":173.44,"EPHEMERIS_TYPE":0,"CLASSIFICATION_TYPE":"U","NORAD_CAT_ID":53676,"ELEMENT_SET_NO":999,"REV_AT_EPOCH":16796,"BSTAR":9.1035742e-5,"MEAN_MOTION_DOT":1.111e-5,"MEAN_MOTION_DDOT":0},{"OBJECT_NAME":"STARLINK-4579","OBJECT_ID":"2022-105AF","EPOCH":"2025-09-22T05:48:46.188000","MEAN_MOTION":15.01264877,"ECCENTRICITY":0.0001801,"INCLINATION":97.6,"RA_OF_ASC_NODE":145.2979,"ARG_OF_PERICENTER":136.7646,"MEAN_ANOMALY":223.372,"EPHEMERIS_TYPE":0,"CLASSIFICATION_TYPE":"U","NORAD_CAT_ID":53677,"ELEMENT_SET_NO":999,"REV_AT_EPOCH":16796,"BSTAR":7.4963357e-5,"MEAN_MOTION_DOT":9.05e-6,"MEAN_MOTION_DDOT":0},{"OBJECT_NAME":"STARLINK-4632","OBJECT_ID":"2022-105AH","EPOCH":"2025-09-22T05:43:26.265216","MEAN_MOTION":15.01262753,"ECCENTRICITY":0.00012237,"INCLINATION":97.6004,"RA_OF_ASC_NODE":145.2943,"ARG_OF_PERICENTER":112.9949,"MEAN_ANOMALY":247.1405,"EPHEMERIS_TYPE":0,"CLASSIFICATION_TYPE":"U","NORAD_CAT_ID":53679,"ELEMENT_SET_NO":999,"REV_AT_EPOCH":16796,"BSTAR":2.9488224e-5,"MEAN_MOTION_DOT":3.21e-6,"MEAN_MOTION_DDOT":0},{"OBJECT_NAME":"STARLINK-4630","OBJECT_ID":"2022-105AJ","EPOCH":"2025-09-22T05:32:46.579488","MEAN_MOTION":15.01263401,"ECCENTRICITY":0.00016487,"INCLINATION":97.6031,"RA_OF_ASC_NODE":145.2893,"ARG_OF_PERICENTER":84.1005,"MEAN_ANOMALY":276.0407,"EPHEMERIS_TYPE":0,"CLASSIFICATION_TYPE":"U","NORAD_CAT_ID":53680,"ELEMENT_SET_NO":999,"REV_AT_EPOCH":16796,"BSTAR":6.910574e-5,"MEAN_MOTION_DOT":8.3e-6,"MEAN_MOTION_DDOT":0},{"OBJECT_NAME":"STARLINK-4424","OBJECT_ID":"2022-105AK","EPOCH":"2025-09-22T05:30:07.509312","MEAN_MOTION":15.01268816,"ECCENTRICITY":0.0001565,"INCLINATION":97.6037,"RA_OF_ASC_NODE":145.3013,"ARG_OF_PERICENTER":98.9254,"MEAN_ANOMALY":261.2147,"EPHEMERIS_TYPE":0,"CLASSIFICATION_TYPE":"U","NORAD_CAT_ID":53681,"ELEMENT_SET_NO":999,"REV_AT_EPOCH":16796,"BSTAR":-0.00030560581,"MEAN_MOTION_DOT":-3.982e-5,"MEAN_MOTION_DDOT":0},{"OBJECT_NAME":"STARLINK-4438","OBJECT_ID":"2022-105AL","EPOCH":"2025-09-22T05:16:48.305856","MEAN_MOTION":15.01244511,"ECCENTRICITY":0.00025896,"INCLINATION":97.6048,"RA_OF_ASC_NODE":145.2985,"ARG_OF_PERICENTER":87.2101,"MEAN_ANOMALY":272.942,"EPHEMERIS_TYPE":0,"CLASSIFICATION_TYPE":"U","NORAD_CAT_ID":53682,"ELEMENT_SET_NO":999,"REV_AT_EPOCH":16796,"BSTAR":-0.00013422116,"MEAN_MOTION_DOT":-1.781e-5,"MEAN_MOTION_DDOT":0},{"OBJECT_NAME":"STARLINK-4625","OBJECT_ID":"2022-105AM","EPOCH":"2025-09-22T05:38:27.578688","MEAN_MOTION":15.01263521,"ECCENTRICITY":0.00014427,"INCLINATION":97.6009,"RA_OF_ASC_NODE":145.2849,"ARG_OF_PERICENTER":110.8875,"MEAN_ANOMALY":249.2504,"EPHEMERIS_TYPE":0,"CLASSIFICATION_TYPE":"U","NORAD_CAT_ID":53683,"ELEMENT_SET_NO":999,"REV_AT_EPOCH":16796,"BSTAR":5.1404038e-5,"MEAN_MOTION_DOT":6.02e-6,"MEAN_MOTION_DDOT":0},{"OBJECT_NAME":"STARLINK-4624","OBJECT_ID":"2022-105AN","EPOCH":"2025-09-22T06:02:06.829152","MEAN_MOTION":15.01259344,"ECCENTRICITY":9.723e-5,"INCLINATION":97.6009,"RA_OF_ASC_NODE":145.3741,"ARG_OF_PERICENTER":89.7986,"MEAN_ANOMALY":270.335,"EPHEMERIS_TYPE":0,"CLASSIFICATION_TYPE":"U","NORAD_CAT_ID":53684,"ELEMENT_SET_NO":999,"REV_AT_EPOCH":16794,"BSTAR":0.00013841065,"MEAN_MOTION_DOT":1.72e-5,"MEAN_MOTION_DDOT":0},{"OBJECT_NAME":"STARLINK-4626","OBJECT_ID":"2022-105AP","EPOCH":"2025-09-22T05:27:48.124512","MEAN_MOTION":15.012463,"ECCENTRICITY":0.00016718,"INCLINATION":97.6042,"RA_OF_ASC_NODE":145.2909,"ARG_OF_PERICENTER":83.9113,"MEAN_ANOMALY":276.2302,"EPHEMERIS_TYPE":0,"CLASSIFICATION_TYPE":"U","NORAD_CAT_ID":53685,"ELEMENT_SET_NO":999,"REV_AT_EPOCH":16796,"BSTAR":0.0001505646,"MEAN_MOTION_DOT":1.875e-5,"MEAN_MOTION_DDOT":0},{"OBJECT_NAME":"STARLINK-4467","OBJECT_ID":"2022-105AQ","EPOCH":"2025-09-22T06:23:25.578528","MEAN_MOTION":15.01275237,"ECCENTRICITY":0.00027819,"INCLINATION":97.6014,"RA_OF_ASC_NODE":145.389,"ARG_OF_PERICENTER":38.715,"MEAN_ANOMALY":321.4273,"EPHEMERIS_TYPE":0,"CLASSIFICATION_TYPE":"U","NORAD_CAT_ID":53686,"ELEMENT_SET_NO":999,"REV_AT_EPOCH":16797,"BSTAR":0.00013012165,"MEAN_MOTION_DOT":1.614e-5,"MEAN_MOTION_DDOT":0},{"OBJECT_NAME":"STARLINK-4569","OBJECT_ID":"2022-105AR","EPOCH":"2025-09-22T05:27:26.688672","MEAN_MOTION":15.01264753,"ECCENTRICITY":0.00021143,"INCLINATION":97.6041,"RA_OF_ASC_NODE":145.2861,"ARG_OF_PERICENTER":84.4063,"MEAN_ANOMALY":275.7402,"EPHEMERIS_TYPE":0,"CLASSIFICATION_TYPE":"U","NORAD_CAT_ID":53687,"ELEMENT_SET_NO":999,"REV_AT_EPOCH":16796,"BSTAR":5.2961755e-5,"MEAN_MOTION_DOT":6.22e-6,"MEAN_MOTION_DDOT":0},{"OBJECT_NAME":"STARLINK-4571","OBJECT_ID":"2022-105AS","EPOCH":"2025-09-22T05:19:27.047712","MEAN_MOTION":15.01262156,"ECCENTRICITY":0.00022633,"INCLINATION":97.604,"RA_OF_ASC_NODE":145.2821,"ARG_OF_PERICENTER":85.701,"MEAN_ANOMALY":274.4473,"EPHEMERIS_TYPE":0,"CLASSIFICATION_TYPE":"U","NORAD_CAT_ID":53688,"ELEMENT_SET_NO":999,"REV_AT_EPOCH":16796,"BSTAR":4.2977524e-5,"MEAN_MOTION_DOT":4.94e-6,"MEAN_MOTION_DDOT":0},{"OBJECT_NAME":"STARLINK-4570","OBJECT_ID":"2022-105AU","EPOCH":"2025-09-22T05:51:26.360640","MEAN_MOTION":15.01263127,"ECCENTRICITY":5.316e-5,"INCLINATION":97.6001,"RA_OF_ASC_NODE":145.2446,"ARG_OF_PERICENTER":181.1728,"MEAN_ANOMALY":178.9495,"EPHEMERIS_TYPE":0,"CLASSIFICATION_TYPE":"U","NORAD_CAT_ID":53690,"ELEMENT_SET_NO":999,"REV_AT_EPOCH":16796,"BSTAR":2.9642115e-5,"MEAN_MOTION_DOT":3.23e-6,"MEAN_MOTION_DDOT":0},{"OBJECT_NAME":"STARLINK-4560","OBJECT_ID":"2022-105AV","EPOCH":"2025-09-22T05:22:06.914496","MEAN_MOTION":15.01263851,"ECCENTRICITY":0.00020738,"INCLINATION":97.6036,"RA_OF_ASC_NODE":145.276,"ARG_OF_PERICENTER":86.525,"MEAN_ANOMALY":273.6211,"EPHEMERIS_TYPE":0,"CLASSIFICATION_TYPE":"U","NORAD_CAT_ID":53691,"ELEMENT_SET_NO":999,"REV_AT_EPOCH":16796,"BSTAR":7.2855984e-5,"MEAN_MOTION_DOT":8.78e-6,"MEAN_MOTION_DDOT":0}]
